ONEWEB-0531             
1 54146U 22138AK  25331.87093646 -.00000071  00000+0 -20762-3 0  9992
2 54146  87.9188 314.5838 0001202  59.7193 300.4059 13.20768600152736
ONEWEB-0535             
1 54147U 22138AL  25331.78570373 -.00000056  00000+0 -17188-3 0  9991
2 54147  87.9209 345.0205 0001428  93.3794 266.7502 13.19720177150278
ONEWEB-0536             
1 54148U 22138AM  25331.85832876 -.00000083  00000+0 -23488-3 0  9999
2 54148  87.9182 314.6309 0001327  52.3449 307.7805 13.20771395152720
ONEWEB-0527             
1 54642U 22166A   25331.89397446 -.00000004  00000+0 -41986-4 0  9999
2 54642  87.9203 284.1498 0001897  78.4210 281.7137 13.21826069144944
ONEWEB-0528             
1 54643U 22166B   25331.90057234 -.00000026  00000+0 -93402-4 0  9994
2 54643  87.9204 284.1524 0001944  78.7868 281.3485 13.21826996144953
ONEWEB-0539             
1 54644U 22166C   25331.86271873  .00000009  00000+0 -86296-5 0  9991
2 54644  87.9205 284.1259 0001956  85.9957 274.1401 13.21824721144943
ONEWEB-0540             
1 54645U 22166D   25331.86942313  .00001031  00000+0  24645-2 0  9998
2 54645  87.9204 284.1623 0001916  85.0304 275.1049 13.21837948144934
ONEWEB-0542             
1 54646U 22166E   25331.87257182 -.00000036  00000+0 -11938-3 0  9991
2 54646  87.9199 284.1209 0001836  93.0489 267.0855 13.21829263144949
